[{"OBJECT_NAME":"LEMUR-2-STAR-FOX","OBJECT_ID":"2025-009CR","EPOCH":"2026-03-09T19:30:12.149568","MEAN_MOTION":15.00891969,"ECCENTRICITY":0.00025005,"INCLINATION":97.7038,"RA_OF_ASC_NODE":151.2547,"ARG_OF_PERICENTER":152.191,"MEAN_ANOMALY":207.9448,"EPHEMERIS_TYPE":0,"CLASSIFICATION_TYPE":"U","NORAD_CAT_ID":62696,"ELEMENT_SET_NO":999,"REV_AT_EPOCH":6264,"BSTAR":0.000772765,"MEAN_MOTION_DOT":9.785e-5,"MEAN_MOTION_DDOT":0},{"OBJECT_NAME":"STARLINK-35959","OBJECT_ID":"2025-280G","EPOCH":"2026-03-09T22:45:14.984640","MEAN_MOTION":14.9832818,"ECCENTRICITY":0.00025614,"INCLINATION":70.0022,"RA_OF_ASC_NODE":333.84,"ARG_OF_PERICENTER":273.0904,"MEAN_ANOMALY":86.9962,"EPHEMERIS_TYPE":0,"CLASSIFICATION_TYPE":"U","NORAD_CAT_ID":66827,"ELEMENT_SET_NO":999,"REV_AT_EPOCH":1611,"BSTAR":0.0002026814,"MEAN_MOTION_DOT":2.326e-5,"MEAN_MOTION_DDOT":0}]
